COMMENT,ORIGINATOR,NORAD_CAT_ID,OBJECT_NAME,OBJECT_TYPE,CLASSIFICATION_TYPE,INTLDES,EPOCH,EPOCH_MICROSECONDS,MEAN_MOTION,ECCENTRICITY,INCLINATION,RA_OF_ASC_NODE,ARG_OF_PERICENTER,MEAN_ANOMALY,EPHEMERIS_TYPE,ELEMENT_SET_NO,REV_AT_EPOCH,BSTAR,MEAN_MOTION_DOT,MEAN_MOTION_DDOT,FILE,TLE_LINE0,TLE_LINE1,TLE_LINE2,OBJECT_ID,OBJECT_NUMBER,SEMIMAJOR_AXIS,PERIOD,APOGEE,PERIGEE,DECAYED
"GENERATED VIA SPACETRACK.ORG API","18 SPCS","51110","STARLINK-3344","PAYLOAD","U","22005G","2022-07-16 06:48:28","631808","15.08848423","0.0002495","53.2199","150.5306","58.5043","301.6193","0","999","2773","0.00012471","0.00001697","0","3515362","0 STARLINK-3344","1 51110U 22005G   22197.28366472  .00001697  00000-0  12471-3 0  9997","2 51110  53.2199 150.5306 0002495  58.5043 301.6193 15.08848423 27739","2022-005G","51110","6917.855","95.437","541.446","537.994","0"
"GENERATED VIA SPACETRACK.ORG API","18 SPCS","51110","STARLINK-3344","PAYLOAD","U","22005G","2022-07-17 03:28:29","722944","15.08841769","0.0002305","53.2188","146.665","54.6028","305.5179","0","999","2897","0.00015205","0.00002133","0","3515770","0 STARLINK-3344","1 51110U 22005G   22198.14478846  .00002133  00000-0  15205-3 0  9996","2 51110  53.2188 146.6650 0002305  54.6028 305.5179 15.08841769 28975","2022-005G","51110","6917.875","95.437","541.335","538.145","0"
"GENERATED VIA SPACETRACK.ORG API","18 SPCS","51110","STARLINK-3344","PAYLOAD","U","22005G","2022-07-17 06:39:16","572960","15.08836146","0.0002413","53.2197","146.0709","55.598","304.524","0","999","2899","0.000038831","0.0000033","0","3516029","0 STARLINK-3344","1 51110U 22005G   22198.27727515  .00000330  00000-0  38831-4 0  9998","2 51110  53.2197 146.0709 0002413  55.5980 304.5240 15.08836146 28994","2022-005G","51110","6917.892","95.438","541.426","538.088","0"
"GENERATED VIA SPACETRACK.ORG API","18 SPCS","51110","STARLINK-3344","PAYLOAD","U","22005G","2022-07-17 13:00:49","88448","15.08838083","0.0002402","53.2197","144.8815","55.3839","304.7379","0","999","2792","0.000051135","0.00000526","0","3516162","0 STARLINK-3344","1 51110U 22005G   22198.54223482  .00000526  00000-0  51135-4 0  9991","2 51110  53.2197 144.8815 0002402  55.3839 304.7379 15.08838083 27926","2022-005G","51110","6917.886","95.438","541.413","538.090","0"
"GENERATED VIA SPACETRACK.ORG API","18 SPCS","51110","STARLINK-3344","PAYLOAD","U","22005G","2022-07-18 12:51:36","264096","15.08840734","0.0002426","53.2204","140.4216","58.0664","302.0564","0","999","2807","-0.000041582","-0.0000095","0","3516915","0 STARLINK-3344","1 51110U 22005G   22199.53583639 -.00000950  00000-0 -41582-4 0  9992","2 51110  53.2204 140.4216 0002426  58.0664 302.0564 15.08840734 28074","2022-005G","51110","6917.878","95.438","541.421","538.065","0"
"GENERATED VIA SPACETRACK.ORG API","18 SPCS","51110","STARLINK-3344","PAYLOAD","U","22005G","2022-07-18 12:51:36","264096","15.08840734","0.0002426","53.2204","140.4216","58.0664","302.0564","0","999","2918","-0.000041582","-0.0000095","0","3517103","0 STARLINK-3344","1 51110U 22005G   22199.53583639 -.00000950  00000-0 -41582-4 0  9992","2 51110  53.2204 140.4216 0002426  58.0664 302.0564 15.08840734 29187","2022-005G","51110","6917.878","95.438","541.421","538.065","0"
"GENERATED VIA SPACETRACK.ORG API","18 SPCS","51110","STARLINK-3344","PAYLOAD","U","22005G","2022-07-19 12:42:23","155488","15.08840725","0.0002332","53.2203","135.9612","57.185","302.9366","0","999","2822","0.000019016","0.00000014","0","3517724","0 STARLINK-3344","1 51110U 22005G   22200.52943467  .00000014  00000-0  19016-4 0  9999","2 51110  53.2203 135.9612 0002332  57.1850 302.9366 15.08840725 28221","2022-005G","51110","6917.878","95.438","541.356","538.130","0"
"GENERATED VIA SPACETRACK.ORG API","18 SPCS","51110","STARLINK-3344","PAYLOAD","U","22005G","2022-07-20 04:36:15","292224","15.08831157","0.0002239","53.2206","132.9884","59.2561","300.8652","0","999","2943","0.000071115","0.00000843","0","3517852","0 STARLINK-3344","1 51110U 22005G   22201.19184366  .00000843  00000-0  71115-4 0  9996","2 51110  53.2206 132.9884 0002239  59.2561 300.8652 15.08831157 29438","2022-005G","51110","6917.907","95.438","541.321","538.223","0"
"GENERATED VIA SPACETRACK.ORG API","18 SPCS","51110","STARLINK-3344","PAYLOAD","U","22005G","2022-07-20 12:33:10","293120","15.08841972","0.000235","53.2209","131.5017","58.178","301.9441","0","999","2837","0.00014265","0.00001983","0","3518111","0 STARLINK-3344","1 51110U 22005G   22201.52303580  .00001983  00000-0  14265-3 0  9992","2 51110  53.2209 131.5017 0002350  58.1780 301.9441 15.08841972 28375","2022-005G","51110","6917.874","95.437","541.365","538.114","0"
"GENERATED VIA SPACETRACK.ORG API","18 SPCS","51110","STARLINK-3344","PAYLOAD","U","22005G","2022-07-20 12:33:10","293120","15.08841972","0.000235","53.2209","131.5017","58.178","301.9441","0","999","2948","0.00014265","0.00001983","0","3518241","0 STARLINK-3344","1 51110U 22005G   22201.52303580  .00001983  00000-0  14265-3 0  9992","2 51110  53.2209 131.5017 0002350  58.1780 301.9441 15.08841972 29488","2022-005G","51110","6917.874","95.437","541.365","538.114","0"
"GENERATED VIA SPACETRACK.ORG API","18 SPCS","51110","STARLINK-3344","PAYLOAD","U","22005G","2022-07-21 12:23:58","567776","15.08828037","0.0002221","53.2206","127.0415","55.9742","304.1461","0","999","2963","0.000018087","0","0","3518877","0 STARLINK-3344","1 51110U 22005G   22202.51665009 -.00000000  00000-0  18087-4 0  9996","2 51110  53.2206 127.0415 0002221  55.9742 304.1461 15.08828037 29638","2022-005G","51110","6917.917","95.438","541.318","538.245","0"
"GENERATED VIA SPACETRACK.ORG API","18 SPCS","51110","STARLINK-3344","PAYLOAD","U","22005G","2022-07-21 12:23:58","567776","15.08828037","0.0002221","53.2206","127.0415","55.9742","304.1461","0","999","2852","0.000018087","0","0","3518988","0 STARLINK-3344","1 51110U 22005G   22202.51665009  .00000000  00000-0  18087-4 0  9995","2 51110  53.2206 127.0415 0002221  55.9742 304.1461 15.08828037 28525","2022-005G","51110","6917.917","95.438","541.318","538.245","0"
"GENERATED VIA SPACETRACK.ORG API","18 SPCS","51110","STARLINK-3344","PAYLOAD","U","22005G","2022-07-21 18:45:31","464288","15.08827419","0.0002283","53.2199","125.8509","61.163","298.9591","0","999","2856","-0.000041636","-0.00000951","0","3519265","0 STARLINK-3344","1 51110U 22005G   22202.78161417 -.00000951  00000-0 -41636-4 0  9991","2 51110  53.2199 125.8509 0002283  61.1630 298.9591 15.08827419 28560","2022-005G","51110","6917.919","95.438","541.363","538.204","0"
"GENERATED VIA SPACETRACK.ORG API","18 SPCS","51110","STARLINK-3344","PAYLOAD","U","22005G","2022-07-22 04:17:50","838432","15.08825085","0.0002039","53.2206","124.0672","58.0939","302.0252","0","999","2973","-0.000048463","-0.00001059","0","3519644","0 STARLINK-3344","1 51110U 22005G   22203.17906063 -.00001059  00000-0 -48463-4 0  9994","2 51110  53.2206 124.0672 0002039  58.0939 302.0252 15.08825085 29735","2022-005G","51110","6917.926","95.438","541.202","538.380","0"
"GENERATED VIA SPACETRACK.ORG API","18 SPCS","51110","STARLINK-3344","PAYLOAD","U","22005G","2022-07-22 04:17:50","838432","15.08825085","0.0002039","53.2206","124.0672","58.0939","302.0252","0","999","2862","-0.000048463","-0.00001059","0","3519758","0 STARLINK-3344","1 51110U 22005G   22203.17906063 -.00001059  00000-0 -48463-4 0  9994","2 51110  53.2206 124.0672 0002039  58.0939 302.0252 15.08825085 28622","2022-005G","51110","6917.926","95.438","541.202","538.380","0"
"GENERATED VIA SPACETRACK.ORG API","18 SPCS","51110","STARLINK-3344","PAYLOAD","U","22005G","2022-07-23 04:08:37","181184","15.08838803","0.0002036","53.2207","119.6076","58.9716","301.1476","0","999","2877","0.00011104","0.00001479","0","3520423","0 STARLINK-3344","1 51110U 22005G   22204.17265256  .00001479  00000-0  11104-3 0  9992","2 51110  53.2207 119.6076 0002036  58.9716 301.1476 15.08838803 28776","2022-005G","51110","6917.884","95.438","541.158","538.341","0"
"GENERATED VIA SPACETRACK.ORG API","18 SPCS","51110","STARLINK-3344","PAYLOAD","U","22005G","2022-07-24 03:59:24","657504","15.08836127","0.0001916","53.2202","115.1467","53.0249","307.0918","0","999","2892","0.0002176","0.00003176","0","3520987","0 STARLINK-3344","1 51110U 22005G   22205.16625761  .00003176  00000-0  21760-3 0  9998","2 51110  53.2202 115.1467 0001916  53.0249 307.0918 15.08836127 28929","2022-005G","51110","6917.892","95.438","541.083","538.432","0"
"GENERATED VIA SPACETRACK.ORG API","18 SPCS","51110","STARLINK-3344","PAYLOAD","U","22005G","2022-07-25 05:25:35","703552","15.08829675","0.0001943","53.219","110.3896","51.9979","308.1188","0","999","3019","-0.000092545","-0.0000176","0","3521380","0 STARLINK-3344","1 51110U 22005G   22206.22610768 -.00001760  00000-0 -92545-4 0  9996","2 51110  53.2190 110.3896 0001943  51.9979 308.1188 15.08829675 30198","2022-005G","51110","6917.912","95.438","541.121","538.433","0"
"GENERATED VIA SPACETRACK.ORG API","18 SPCS","51110","STARLINK-3344","PAYLOAD","U","22005G","2022-07-25 05:25:35","703552","15.08829675","0.0001943","53.219","110.3896","51.9979","308.1188","0","999","2908","-0.000092545","-0.0000176","0","3521435","0 STARLINK-3344","1 51110U 22005G   22206.22610768 -.00001760  00000-0 -92545-4 0  9996","2 51110  53.2190 110.3896 0001943  51.9979 308.1188 15.08829675 29084","2022-005G","51110","6917.912","95.438","541.121","538.433","0"
"GENERATED VIA SPACETRACK.ORG API","18 SPCS","51110","STARLINK-3344","PAYLOAD","U","22005G","2022-07-25 19:44:04","17408","15.08833181","0.0001821","53.2183","107.7141","58.68","301.4371","0","999","2917","-0.00011189","-0.00002068","0","3521711","0 STARLINK-3344","1 51110U 22005G   22206.82226872 -.00002068  00000-0 -11189-3 0  9997","2 51110  53.2183 107.7141 0001821  58.6800 301.4371 15.08833181 29178","2022-005G","51110","6917.901","95.438","541.026","538.506","0"
